141P-I/Machholz,e,13.9429,153.4495,241.9483,3.047101,0.1852993,0.73506138,356.9192,03/28.0/2026,2000,g 17.5,4.0
# From MPC191605
142P/Ge-Wang,e,12.2429,175.9631,174.0256,5.003484,0.0880634,0.49570137,157.0068,03/28.0/2026,2000,g  8.5,6.0
# From MPEC 2026-FC3
143P/Kowal-Mrkos,e,5.3948,242.0378,304.8438,4.752263,0.0951379,0.37778636,333.8255,03/28.0/2026,2000,g 13.5,2.0
# From MPC191605
144P/Kushida,e,3.9307,242.9230,216.3893,3.835058,0.1312339,0.63489433,103.9549,03/28.0/2026,2000,g  8.5,8.0
# From MPEC 2026-EC7
145P/Shoemaker-Levy,e,11.2782,26.7664,10.4245,4.129460,0.1174530,0.54238120,6.4665,03/28.0/2026,2000,g 13.5,4.0
# From MPC191606
146P/Shoemaker-LINEAR,e,23.1176,53.3158,317.0119,4.021436,0.1222172,0.64762149,73.2880,03/28.0/2026,2000,g 15.0,4.0
# From MPC191606
147P/Kushida-Muramatsu,e,2.3112,91.6666,348.6536,4.009632,0.1227573,0.21151312,103.3642,03/28.0/2026,2000,g 14.0,4.0
# From MPC191606
148P/Anderson-LINEAR,e,3.6585,89.1941,8.1022,3.620282,0.1430838,0.55036019,197.7912,03/28.0/2026,2000,g 16.0,2.0
# From MPC191606
149P/Mueller,e,34.2615,143.7004,30.0391,4.135690,0.1171877,0.32463112,329.2364,03/28.0/2026,2000,g  8.0,8.0
# From MPC191606
150P/LONEOS,e,18.5471,272.0533,246.1299,3.872331,0.1293437,0.54939252,96.4019,03/28.0/2026,2000,g 13.5,4.0
# From MPC191606
151P/Helin,e,4.7218,143.0528,216.1884,5.768601,0.0711374,0.57213244,271.8324,03/28.0/2026,2000,g 10.0,6.0
# From MPC191606
152P/Helin-Lawrence,e,9.8795,91.7768,164.3774,4.486338,0.1037209,0.30642381,159.3377,03/28.0/2026,2000,g 11.5,4.0
# From MPC191606
154P/Brewington,e,17.6406,342.9949,47.9040,4.792501,0.0939422,0.67611676,61.3370,03/28.0/2026,2000,g  2.5,12.0
# From MPC191607
156P/Russell-LINEAR,e,17.2558,35.3220,0.5335,3.462644,0.1529651,0.61468451,299.0250,03/28.0/2026,2000,g 15.5,2.0
# From MPC191607
157P/Tritton,e,12.4253,287.4955,155.2003,3.548440,0.1474510,0.55664871,190.9012,03/28.0/2026,2000,g 10.0,4.0
# From MPEC 2022-VC5
157P-B/Tritton,e,12.4273,153.8630,287.2435,3.102749,0.1803367,0.49979906,233.7748,03/28.0/2026,2000,g 15.7,4.0
# From MPC191607
158P/Kowal-LINEAR,e,7.5021,124.1464,234.7288,5.741321,0.0716451,0.11393786,89.6316,03/28.0/2026,2000,g  9.0,4.0
# From MPC191607
159P/LONEOS,e,23.4746,54.9351,4.7612,5.856580,0.0695405,0.38217305,199.0790,03/28.0/2026,2000,g 10.0,4.0
# From MPC191607
160P/LINEAR,e,15.5889,333.3121,12.7818,3.780801,0.1340690,0.52486769,309.6934,03/28.0/2026,2000,g 15.5,2.0
# From MPC191607
161P/Hartley-IRAS,e,95.7896,1.4772,47.0732,7.720790,0.0459422,0.83614385,348.7664,03/28.0/2026,2000,g  8.5,6.0
# From MPC191607
162P/SidingSpring,e,27.5522,30.8675,357.2512,3.091186,0.1813495,0.58284031,350.7792,03/28.0/2026,2000,g 12.0,4.0
# From MPC191607
163P/NEAT,e,12.7243,102.0672,349.6846,3.759547,0.1352075,0.45345286,327.4130,03/28.0/2026,2000,g 14.5,4.0
# From MPEC 2026-FC3
164P/Christensen,e,16.2756,88.2626,325.9030,3.650978,0.1412831,0.54138619,43.0446,03/28.0/2026,2000,g 11.0,4.0
# From MPC191608
165P/LINEAR,e,15.9151,0.5993,125.9875,17.81729,0.0131051,0.61957068,123.3186,03/28.0/2026,2000,g 11.5,2.0
# From MPC191608
166P/NEAT,e,15.3836,64.3458,321.9918,13.85377,0.0191140,0.38173440,166.3602,03/28.0/2026,2000,g  5.5,4.0
# From MPC191608
167P/CINEOS,e,19.0720,295.8453,344.2413,16.24089,0.0150588,0.26801157,137.6751,03/28.0/2026,2000,g  9.5,2.0
# From MPC191608
168P/Hergenrother,e,21.5951,355.3779,15.1030,3.585591,0.1451653,0.62102953,351.3908,03/28.0/2026,2000,g 15.5,4.0
# From MPC191608
169P/NEAT,e,11.2848,176.0375,218.1357,2.603674,0.2345980,0.76791698,318.3859,03/28.0/2026,2000,g 16.0,2.0
# From MPC191608
170P/Christensen,e,10.1367,142.6373,224.5137,4.189467,0.1149386,0.30562495,123.9154,03/28.0/2026,2000,g 12.0,4.0
# From MPEC 2026-E44
171P/Spahr,e,21.9547,101.6926,347.0457,3.552328,0.1472091,0.50279632,27.0905,03/28.0/2026,2000,g 13.5,4.0
# From MPC191608
172P/Yeung,e,11.2212,30.8771,208.8657,4.225184,0.1134843,0.20520472,16.5316,03/28.0/2026,2000,g 13.0,4.0
# From MPC191608
173P/Mueller,e,16.4936,100.3455,29.3765,5.717604,0.0720913,0.26245478,112.4797,03/28.0/2026,2000,g  7.5,4.0
# From MPEC 2026-FC3
175P/Hergenrother,e,4.9296,109.7953,74.5891,3.689362,0.1390840,0.37465095,337.8615,03/28.0/2026,2000,g 14.0,4.0
# From MPC191609
178P/Hug-Bell,e,11.0927,102.7839,297.9660,3.632589,0.1423573,0.48209681,295.8601,03/28.0/2026,2000,g 13.5,4.0
# From MPEC 2026-E43
179P/Jedicke,e,19.8890,115.5041,297.2577,5.938138,0.0681128,0.30502627,95.1201,03/28.0/2026,2000,g  2.5,8.0
# From MPC191609
180P/NEAT,e,16.8604,84.5506,94.5974,3.867189,0.1296018,0.35411354,128.2531,03/28.0/2026,2000,g 11.0,4.0
# From MPC191609
181P/Shoemaker-Levy,e,17.4685,35.4291,336.3001,3.879966,0.1289621,0.69943985,198.6428,03/28.0/2026,2000,g 11.5,4.0
# From MPC191609
182P/LONEOS,e,16.2296,72.4371,54.2436,2.948099,0.1947113,0.66408639,275.4245,03/28.0/2026,2000,g 18.0,4.0
# From MPEC 2026-FC3
183P/Korlevic-Juric,e,18.7223,3.2497,161.5129,4.721917,0.0960565,0.10359202,309.5662,03/28.0/2026,2000,g 12.5,2.0
# From MPC191609
184P/Lovas,e,4.5684,173.2220,186.5802,3.801943,0.1329522,0.54948675,263.3425,03/28.0/2026,2000,g 13.5,4.0
# From MPC191609
185P/Petriew,e,14.0035,214.1247,181.9245,3.100261,0.1805538,0.69912760,178.6414,03/28.0/2026,2000,g 15.0,4.0
# From MPC191609
186P/Garradd,e,28.7452,325.6724,267.3946,4.869288,0.0917288,0.12257359,246.5735,03/28.0/2026,2000,g  7.5,4.0
# From MPC191610
187P/LINEAR,e,13.6692,109.8481,132.1895,4.543753,0.1017611,0.15672580,290.7004,03/28.0/2026,2000,g  9.0,4.0
# From MPEC 2026-E43
188P/LINEAR-Mueller,e,10.5261,358.9109,26.8545,4.362897,0.1081538,0.41642799,358.2322,03/28.0/2026,2000,g 11.5,4.0
# From MPEC 2026-E44
190P/Mueller,e,2.1784,335.4019,50.4524,4.227574,0.1133880,0.52334185,52.0368,03/28.0/2026,2000,g 13.0,4.0
# From MPC191610
191P/McNaught,e,8.8395,98.1787,284.2503,3.641696,0.1418236,0.38480627,260.1640,03/28.0/2026,2000,g 13.0,4.0
# From MPC191610
192P/Shoemaker-Levy,e,24.5758,51.5066,313.0191,6.440880,0.0602957,0.77321444,40.5577,03/28.0/2026,2000,g 15.0,4.0
# From MPC191610
193P/LINEAR-NEAT,e,10.6771,335.1803,8.0829,3.580485,0.1454760,0.39240846,244.1437,03/28.0/2026,2000,g 14.0,4.0
# From MPC191610
194P/LINEAR,e,11.8032,349.4885,128.6716,4.124240,0.1176761,0.56339821,92.0912,03/28.0/2026,2000,g 16.0,4.0
# From MPEC 2026-FC3
195P/Hill,e,36.4151,243.0858,250.6823,6.439228,0.0603189,0.31035310,14.1029,03/28.0/2026,2000,g  8.5,4.0
# From MPC191610
196P/Tichy,e,19.2883,24.1253,12.1502,3.807330,0.1326702,0.42714515,165.3389,03/28.0/2026,2000,g 13.5,4.0
# From MPC191611
197P/LINEAR,e,25.1528,66.0715,190.0091,2.912441,0.1982980,0.61682056,240.1744,03/28.0/2026,2000,g 16.5,2.0
# From MPC191611
198P/ODAS,e,1.3393,358.3195,69.2982,3.633228,0.1423197,0.44818313,18.0522,03/28.0/2026,2000,g 12.5,4.0
# From MPC191611
199P/Shoemaker,e,24.9404,92.3405,191.7247,5.869844,0.0693049,0.50412488,66.8124,03/28.0/2026,2000,g 10.0,4.0
# From MPC191611
200P/Larsen,e,12.0953,234.7339,134.4317,4.955450,0.0893469,0.33062546,217.6649,03/28.0/2026,2000,g  9.0,4.0
# From MPC191611
201P/LONEOS,e,5.7332,19.6689,41.6655,3.354384,0.1604298,0.63737833,283.1015,03/28.0/2026,2000,g 14.0,4.0
# From MPC191611
202P/Scotti,e,2.1416,177.2995,274.5452,4.099692,0.1187346,0.25091500,80.6911,03/28.0/2026,2000,g 13.5,4.0
# From MPC191611
203P/Korlevic,e,2.9762,290.2201,154.9829,4.668394,0.0977131,0.31630180,216.0044,03/28.0/2026,2000,g 14.5,2.0
# From MPC191611
204P/LINEAR-NEAT,e,6.5983,108.4721,356.7538,3.584439,0.1452354,0.48828446,178.1179,03/28.0/2026,2000,g 14.0,4.0
# From MPC191611
205P/Giacobini,e,15.3002,179.6241,154.1277,3.543456,0.1477622,0.56718907,226.9837,03/28.0/2026,2000,g 13.0,4.0
# From MPC191612
207P/NEAT,e,10.1964,198.1052,273.0763,3.887237,0.1286005,0.75852705,101.0846,03/28.0/2026,2000,g 16.0,4.0
# From MPC191612
208P/McMillan,e,4.4005,36.1512,311.3960,4.055654,0.1206737,0.37485618,69.8986,03/28.0/2026,2000,g 12.5,4.0
# From MPC191612
209P/LINEAR,e,21.2870,62.7498,152.4743,2.957089,0.1938240,0.67419353,120.4553,03/28.0/2026,2000,g 17.0,2.0
# From MPEC 2026-FC3
210P/Christensen,e,10.2873,93.7964,345.9484,3.160102,0.1754496,0.83404813,21.9794,03/28.0/2026,2000,g 13.5,4.0
# From MPC191612
211P/Hill,e,18.9265,117.1001,4.3813,3.548716,0.1474339,0.34460182,187.1426,03/28.0/2026,2000,g 12.5,4.0
# From MPC191612
212P/NEAT,e,22.1488,97.9718,14.0915,3.904493,0.1277489,0.58674330,89.6525,03/28.0/2026,2000,g 17.0,2.0
# From MPC191612
213P/VanNess,e,10.6996,310.2873,7.8537,3.363331,0.1597900,0.41536816,136.7232,03/28.0/2026,2000,g 10.5,4.0
# From MPEC 2025-GB9
213P-B/Van Ness,e,10.6985,310.2852,7.8675,3.363095,0.1598068,0.41526490,136.7576,03/28.0/2026,2000,g 17.0,4.0
# From MPC191612
214P/LINEAR,e,15.1957,348.2254,190.1122,3.615615,0.1433609,0.48662667,183.2235,03/28.0/2026,2000,g 13.0,4.0
# From MPEC 2026-FC3
215P/NEAT,e,10.5756,56.6831,262.1153,4.337299,0.1091126,0.16483694,253.9981,03/28.0/2026,2000,g 11.0,4.0
# From MPC191612
216P/LINEAR,e,9.0625,359.7614,151.8037,3.860802,0.1299235,0.44916833,105.3443,03/28.0/2026,2000,g 13.0,4.0
# From MPEC 2026-FC3
217P/LINEAR,e,12.8704,125.3685,247.0142,3.946963,0.1256925,0.68953857,38.5849,03/28.0/2026,2000,g 12.0,4.0
# From MPEC 2026-EC7
218P/LINEAR,e,2.7267,174.7141,61.4149,3.059924,0.1841357,0.63091459,4.3626,03/28.0/2026,2000,g 16.0,4.0
# From MPC191613
219P/LINEAR,e,11.4112,230.0592,108.9373,3.660946,0.1407065,0.35883689,108.1851,03/28.0/2026,2000,g 11.0,4.0
# From MPC191613
220P/McNaught,e,8.1207,150.0840,180.5670,3.120835,0.1787713,0.50036081,346.0330,03/28.0/2026,2000,g 15.0,4.0
# From MPC191613
221P/LINEAR,e,10.3113,221.6775,46.8720,3.380902,0.1585460,0.52265382,243.1902,03/28.0/2026,2000,g 14.5,4.0
# From MPC191613
223P/Skiff,e,27.0069,346.6878,37.9903,4.158232,0.1162361,0.41606335,303.7548,03/28.0/2026,2000,g 12.0,4.0
# From MPC191613
224P/LINEAR-NEAT,e,13.2971,40.0363,16.8376,3.447984,0.1539417,0.40525497,196.2769,03/28.0/2026,2000,g 15.5,4.0
# From MPC191613
226P/Pigott-LINEAR-Kowalski,e,44.0410,54.0209,341.0404,3.765660,0.1348784,0.52860288,110.8866,03/28.0/2026,2000,g 12.5,4.0
